start=new Date('2022-04-15T00:00:00.000Z').valueOf();
sats=[{"RCS_SIZE":"LARGE","CENTER_NAME":"EARTH","GP_ID":"201230281","REF_FRAME":"TEME","MEAN_MOTION_DOT":"0.00030000","SITE":"AFWTR","ARG_OF_PERICENTER":"279.6521","TLE_LINE2":"2 49172  69.9984 265.9648 0003503 279.6521 351.0155 14.96697614 33068","FILE":"3401709","LAUNCH_DATE":"2021-09-14","OBJECT_ID":"2021-082AU","MEAN_MOTION":"14.96697614","OBJECT_NAME":"STARLINK-3091","RA_OF_ASC_NODE":"265.9648","MEAN_MOTION_DDOT":"0.0000000000000","NORAD_CAT_ID":"49172","INCLINATION":"69.9984","MEAN_ANOMALY":"351.0155","OBJECT_TYPE":"PAYLOAD","EPOCH":"2022-04-14T22:00:00.999936","MEAN_ELEMENT_THEORY":"SGP4","APOAPSIS":"579.547","SEMIMAJOR_AXIS":"6955.245","CLASSIFICATION_TYPE":"U","EPHEMERIS_TYPE":"0","PERIOD":"96.212","TIME_SYSTEM":"UTC","ECCENTRICITY":"0.00035030","ELEMENT_SET_NO":"999","TLE_LINE1":"1 49172U 21082AU  22104.91667824  .00030000  00000-0  26189-2 0  9999","BSTAR":"0.00261890000000","COUNTRY_CODE":"US","REV_AT_EPOCH":"3306","PERIAPSIS":"574.674","DECAY_DATE":null},{"CLASSIFICATION_TYPE":"U","SEMIMAJOR_AXIS":"6955.194","APOAPSIS":"579.281","MEAN_ELEMENT_THEORY":"SGP4","EPOCH":"2022-04-14T22:00:00.999936","OBJECT_TYPE":"PAYLOAD","DECAY_DATE":null,"PERIAPSIS":"574.837","BSTAR":"0.00273480000000","COUNTRY_CODE":"US","REV_AT_EPOCH":"3307","TLE_LINE1":"1 49173U 21082AV  22104.91667824  .00031350  00000-0  27348-2 0  9997","ELEMENT_SET_NO":"999","ECCENTRICITY":"0.00031950","TIME_SYSTEM":"UTC","PERIOD":"96.211","EPHEMERIS_TYPE":"0","LAUNCH_DATE":"2021-09-14","FILE":"3401713","ARG_OF_PERICENTER":"282.1998","TLE_LINE2":"2 49173  69.9994 265.9555 0003195 282.1998 234.0292 14.96714274 33076","SITE":"AFWTR","MEAN_MOTION_DOT":"0.00031350","REF_FRAME":"TEME","CENTER_NAME":"EARTH","GP_ID":"201230340","RCS_SIZE":"LARGE","MEAN_ANOMALY":"234.0292","INCLINATION":"69.9994","NORAD_CAT_ID":"49173","MEAN_MOTION_DDOT":"0.0000000000000","MEAN_MOTION":"14.96714274","OBJECT_NAME":"STARLINK-3045","RA_OF_ASC_NODE":"265.9555","OBJECT_ID":"2021-082AV"},{"EPHEMERIS_TYPE":"0","TIME_SYSTEM":"UTC","PERIOD":"96.211","ECCENTRICITY":"0.00030730","ELEMENT_SET_NO":"999","COUNTRY_CODE":"US","BSTAR":"0.00271810000000","REV_AT_EPOCH":"3424","TLE_LINE1":"1 49174U 21082AW  22104.91667824  .00031152  00000-0  27181-2 0  9993","PERIAPSIS":"574.942","DECAY_DATE":null,"EPOCH":"2022-04-14T22:00:00.999936","OBJECT_TYPE":"PAYLOAD","APOAPSIS":"579.217","MEAN_ELEMENT_THEORY":"SGP4","SEMIMAJOR_AXIS":"6955.214","CLASSIFICATION_TYPE":"U","OBJECT_ID":"2021-082AW","OBJECT_NAME":"STARLINK-3047","RA_OF_ASC_NODE":"265.9485","MEAN_MOTION":"14.96707675","MEAN_MOTION_DDOT":"0.0000000000000","INCLINATION":"69.9995","NORAD_CAT_ID":"49174","MEAN_ANOMALY":"260.7635","RCS_SIZE":"LARGE","GP_ID":"201230352","CENTER_NAME":"EARTH","REF_FRAME":"TEME","MEAN_MOTION_DOT":"0.00031152","TLE_LINE2":"2 49174  69.9995 265.9485 0003073 272.8942 260.7635 14.96707675 34244","ARG_OF_PERICENTER":"272.8942","SITE":"AFWTR","FILE":"3401719","LAUNCH_DATE":"2021-09-14"},{"PERIAPSIS":"574.748","DECAY_DATE":null,"TLE_LINE1":"1 49175U 21082AX  22104.91667824  .00026594  00000-0  23224-2 0  9992","COUNTRY_CODE":"US","REV_AT_EPOCH":"3307","BSTAR":"0.00232240000000","ELEMENT_SET_NO":"999","ECCENTRICITY":"0.00033020","EPHEMERIS_TYPE":"0","PERIOD":"96.210","TIME_SYSTEM":"UTC","CLASSIFICATION_TYPE":"U","APOAPSIS":"579.341","MEAN_ELEMENT_THEORY":"SGP4","SEMIMAJOR_AXIS":"6955.179","OBJECT_TYPE":"PAYLOAD","EPOCH":"2022-04-14T22:00:00.999936","MEAN_ANOMALY":"96.7971","MEAN_MOTION_DDOT":"0.0000000000000","NORAD_CAT_ID":"49175","INCLINATION":"70.0002","OBJECT_NAME":"STARLINK-3087","MEAN_MOTION":"14.96719041","RA_OF_ASC_NODE":"265.9518","OBJECT_ID":"2021-082AX","LAUNCH_DATE":"2021-09-14","SITE":"AFWTR","TLE_LINE2":"2 49175  70.0002 265.9518 0003302 278.9489  96.7971 14.96719041 33072","ARG_OF_PERICENTER":"278.9489","FILE":"3401719","REF_FRAME":"TEME","MEAN_MOTION_DOT":"0.00026594","RCS_SIZE":"LARGE","CENTER_NAME":"EARTH","GP_ID":"201230356"},{"OBJECT_ID":"2021-082AY","OBJECT_NAME":"STARLINK-3069","MEAN_MOTION":"15.49102800","RA_OF_ASC_NODE":"249.4593","INCLINATION":"69.9996","NORAD_CAT_ID":"49176","MEAN_MOTION_DDOT":"0.0000000000000","MEAN_ANOMALY":"284.1312","GP_ID":"201233509","CENTER_NAME":"EARTH","RCS_SIZE":"LARGE","MEAN_MOTION_DOT":"-0.00720973","REF_FRAME":"TEME","FILE":"3401833","TLE_LINE2":"2 49176  69.9996 249.4593 0003323 274.7741 284.1312 15.49102800 33474","ARG_OF_PERICENTER":"274.7741","SITE":"AFWTR","LAUNCH_DATE":"2021-09-14","TIME_SYSTEM":"UTC","PERIOD":"92.957","EPHEMERIS_TYPE":"0","ELEMENT_SET_NO":"999","ECCENTRICITY":"0.00033230","COUNTRY_CODE":"US","BSTAR":"-0.01428400000000","REV_AT_EPOCH":"3347","TLE_LINE1":"1 49176U 21082AY  22104.91667824 -.00720973  00000-0 -14284-1 0  9992","DECAY_DATE":null,"PERIAPSIS":"417.093","EPOCH":"2022-04-14T22:00:00.999936","OBJECT_TYPE":"PAYLOAD","SEMIMAJOR_AXIS":"6797.486","APOAPSIS":"421.610","MEAN_ELEMENT_THEORY":"SGP4","CLASSIFICATION_TYPE":"U"},{"SEMIMAJOR_AXIS":"6799.448","APOAPSIS":"423.571","MEAN_ELEMENT_THEORY":"SGP4","CLASSIFICATION_TYPE":"U","OBJECT_TYPE":"PAYLOAD","EPOCH":"2022-04-14T22:00:00.999936","TLE_LINE1":"1 49177U 21082AZ  22104.91667824 -.00720856  00000-0 -14622-1 0  9999","COUNTRY_CODE":"US","BSTAR":"-0.01462200000000","REV_AT_EPOCH":"369","DECAY_DATE":null,"PERIAPSIS":"419.056","PERIOD":"92.997","TIME_SYSTEM":"UTC","EPHEMERIS_TYPE":"0","ELEMENT_SET_NO":"999","ECCENTRICITY":"0.00033200","FILE":"3401977","SITE":"AFWTR","ARG_OF_PERICENTER":"272.2591","TLE_LINE2":"2 49177  69.9995 249.4650 0003320 272.2591 261.6858 15.48432452  3695","LAUNCH_DATE":"2021-09-14","GP_ID":"201257530","CENTER_NAME":"EARTH","RCS_SIZE":"LARGE","MEAN_MOTION_DOT":"-0.00720856","REF_FRAME":"TEME","NORAD_CAT_ID":"49177","INCLINATION":"69.9995","MEAN_MOTION_DDOT":"0.0000000000000","MEAN_ANOMALY":"261.6858","OBJECT_ID":"2021-082AZ","OBJECT_NAME":"STARLINK-3103","RA_OF_ASC_NODE":"249.4650","MEAN_MOTION":"15.48432452"},{"DECAY_DATE":null,"PERIAPSIS":"569.766","COUNTRY_CODE":"US","BSTAR":"0.00338360000000","REV_AT_EPOCH":"360","TLE_LINE1":"1 49178U 21082BA  22104.91667824  .00040488  00000-0  33836-2 0  9993","ECCENTRICITY":"0.00034100","ELEMENT_SET_NO":"999","TIME_SYSTEM":"UTC","PERIOD":"96.109","EPHEMERIS_TYPE":"0","CLASSIFICATION_TYPE":"U","SEMIMAJOR_AXIS":"6950.271","MEAN_ELEMENT_THEORY":"SGP4","APOAPSIS":"574.506","EPOCH":"2022-04-14T22:00:00.999936","OBJECT_TYPE":"PAYLOAD","MEAN_ANOMALY":"193.6985","INCLINATION":"70.0007","NORAD_CAT_ID":"49178","MEAN_MOTION_DDOT":"0.0000000000000","RA_OF_ASC_NODE":"286.7973","MEAN_MOTION":"14.98304684","OBJECT_NAME":"STARLINK-3086","OBJECT_ID":"2021-082BA","LAUNCH_DATE":"2021-09-14","FILE":"3401977","ARG_OF_PERICENTER":"283.3752","TLE_LINE2":"2 49178  70.0007 286.7973 0003410 283.3752 193.6985 14.98304684  3602","SITE":"AFWTR","MEAN_MOTION_DOT":"0.00040488","REF_FRAME":"TEME","GP_ID":"201257780","CENTER_NAME":"EARTH","RCS_SIZE":"LARGE"},{"APOAPSIS":"422.178","MEAN_ELEMENT_THEORY":"SGP4","SEMIMAJOR_AXIS":"6798.059","CLASSIFICATION_TYPE":"U","EPOCH":"2022-04-14T22:00:00.999936","OBJECT_TYPE":"PAYLOAD","COUNTRY_CODE":"US","BSTAR":"-0.01438200000000","REV_AT_EPOCH":"3347","TLE_LINE1":"1 49179U 21082BB  22104.91667824 -.00720935  00000-0 -14382-1 0  9992","PERIAPSIS":"417.670","DECAY_DATE":null,"EPHEMERIS_TYPE":"0","TIME_SYSTEM":"UTC","PERIOD":"92.969","ECCENTRICITY":"0.00033150","ELEMENT_SET_NO":"999","TLE_LINE2":"2 49179  69.9995 249.4617 0003315 272.5427 274.7214 15.48907072 33470","ARG_OF_PERICENTER":"272.5427","SITE":"AFWTR","FILE":"3401833","LAUNCH_DATE":"2021-09-14","RCS_SIZE":"LARGE","CENTER_NAME":"EARTH","GP_ID":"201233511","REF_FRAME":"TEME","MEAN_MOTION_DOT":"-0.00720935","MEAN_MOTION_DDOT":"0.0000000000000","INCLINATION":"69.9995","NORAD_CAT_ID":"49179","MEAN_ANOMALY":"274.7214","OBJECT_ID":"2021-082BB","OBJECT_NAME":"STARLINK-3043","RA_OF_ASC_NODE":"249.4617","MEAN_MOTION":"15.48907072"},{"FILE":"3401833","SITE":"AFWTR","ARG_OF_PERICENTER":"272.7767","TLE_LINE2":"2 49180  69.9992 265.9506 0003038 272.7767 207.9238 14.96709548 34240","LAUNCH_DATE":"2021-09-14","CENTER_NAME":"EARTH","GP_ID":"201234014","RCS_SIZE":"LARGE","MEAN_MOTION_DOT":"0.00030241","REF_FRAME":"TEME","NORAD_CAT_ID":"49180","INCLINATION":"69.9992","MEAN_MOTION_DDOT":"0.0000000000000","MEAN_ANOMALY":"207.9238","OBJECT_ID":"2021-082BC","OBJECT_NAME":"STARLINK-3050","RA_OF_ASC_NODE":"265.9506","MEAN_MOTION":"14.96709548","SEMIMAJOR_AXIS":"6955.209","MEAN_ELEMENT_THEORY":"SGP4","APOAPSIS":"579.187","CLASSIFICATION_TYPE":"U","OBJECT_TYPE":"PAYLOAD","EPOCH":"2022-04-14T22:00:00.999936","TLE_LINE1":"1 49180U 21082BC  22104.91667824  .00030241  00000-0  26391-2 0  9990","BSTAR":"0.00263910000000","COUNTRY_CODE":"US","REV_AT_EPOCH":"3424","DECAY_DATE":null,"PERIAPSIS":"574.961","PERIOD":"96.211","TIME_SYSTEM":"UTC","EPHEMERIS_TYPE":"0","ELEMENT_SET_NO":"999","ECCENTRICITY":"0.00030380"},{"PERIAPSIS":"569.877","DECAY_DATE":null,"BSTAR":"0.00355850000000","COUNTRY_CODE":"US","REV_AT_EPOCH":"358","TLE_LINE1":"1 49181U 21082BD  22104.91667824  .00042604  00000-0  35585-2 0  9992","ECCENTRICITY":"0.00032280","ELEMENT_SET_NO":"999","EPHEMERIS_TYPE":"0","TIME_SYSTEM":"UTC","PERIOD":"96.108","CLASSIFICATION_TYPE":"U","APOAPSIS":"574.364","MEAN_ELEMENT_THEORY":"SGP4","SEMIMAJOR_AXIS":"6950.255","EPOCH":"2022-04-14T22:00:00.999936","OBJECT_TYPE":"PAYLOAD","MEAN_ANOMALY":"296.9639","MEAN_MOTION_DDOT":"0.0000000000000","INCLINATION":"70.0000","NORAD_CAT_ID":"49181","RA_OF_ASC_NODE":"286.8112","OBJECT_NAME":"STARLINK-3059","MEAN_MOTION":"14.98309795","OBJECT_ID":"2021-082BD","LAUNCH_DATE":"2021-09-14","TLE_LINE2":"2 49181  70.0000 286.8112 0003228 282.8828 296.9639 14.98309795  3588","ARG_OF_PERICENTER":"282.8828","SITE":"AFWTR","FILE":"3401977","REF_FRAME":"TEME","MEAN_MOTION_DOT":"0.00042604","RCS_SIZE":"LARGE","CENTER_NAME":"EARTH","GP_ID":"201258025"}];
